{"generatedAt":"2026-05-02T07:52:09.526867Z","satellites":[{"name":"KUIPER-00204","tle1":"1 67145C 25301N   26122.07335648  .00005605  00000+0  21364-3 0  1225","tle2":"2 67145  51.8802 176.5689 0002235  78.0380 160.7448 15.26121950    12"},{"name":"KUIPER-00210","tle1":"1 67146C 25301P   26122.15347222  .00005264  00000+0  68936-3 0  1223","tle2":"2 67146  51.8986 196.6869 0000584  90.3111  10.6482 14.79909030    14"},{"name":"KUIPER-00221","tle1":"1 67147C 25301Q   26122.13645833  .00006493  00000+0  84987-3 0  1220","tle2":"2 67147  51.9007 204.2746 0000496  83.1698 150.1284 14.79931192    16"},{"name":"KUIPER-00232","tle1":"1 67148C 25301R   26122.08020833  .00260580  00000+0  36786-1 0  1223","tle2":"2 67148  51.8980 189.4862 0000772  96.1016 331.0631 14.76478324    10"},{"name":"KUIPER-00241","tle1":"1 67149C 25301S   26122.20707176 -.00020866  00000+0 -27307-2 0  1223","tle2":"2 67149  51.9017 198.9753 0000305  76.3572 144.6688 14.79963643    12"},{"name":"KUIPER-00245","tle1":"1 67150C 25301T   26122.13553241  .00006889  00000+0  90153-3 0  1226","tle2":"2 67150  51.9017 206.8051 0000365  82.7029 160.0283 14.79937897    13"},{"name":"KUIPER-00246","tle1":"1 67151C 25301U   26122.06505787  .00004862  00000+0  63663-3 0  1226","tle2":"2 67151  51.8990 192.0855 0000528  81.1356 239.6080 14.79917518    14"},{"name":"KUIPER-00247","tle1":"1 67152C 25301V   26122.07614583  .00228490  00000+0  30554-1 0  1229","tle2":"2 67152  51.8942 182.0280 0000821  32.7399 294.8836 14.78805950    15"},{"name":"KUIPER-00248","tle1":"1 67153C 25301W   26122.07924769  .00001791  00000+0  74171-4 0  1229","tle2":"2 67153  51.8755 167.6411 0005018 222.3402  27.8980 15.23345025    15"},{"name":"KUIPER-00249","tle1":"1 67154C 25301X   26122.22361111 -.00002490  00000+0 -35368-3 0  1226","tle2":"2 67154  51.8974 178.7388 0001907  50.8226  57.4205 14.76477440    19"},{"name":"KUIPER-00250","tle1":"1 67155C 25301Y   26122.07998843  .00005123  00000+0  67073-3 0  1220","tle2":"2 67155  51.8977 194.5129 0000430  67.8712 166.8248 14.79919744    13"},{"name":"KUIPER-00251","tle1":"1 67156C 25301Z   26122.08583333  .00000667  00000+0  89552-4 0  1221","tle2":"2 67156  51.8989 182.0336 0000051  81.6324 117.5763 14.78839877    13"},{"name":"KUIPER-00252","tle1":"1 67157C 25301AA  26122.22506944  .00210230  00000+0  28260-1 0  1226","tle2":"2 67157  51.8985 183.8656 0000791  88.8381 148.8840 14.78605199    18"},{"name":"KUIPER-00261","tle1":"1 67158C 25301AB  26122.21019676 -.00029119  00000+0 -38110-2 0  1229","tle2":"2 67158  51.9009 193.9859 0000505 117.5611 271.3789 14.79968202    15"},{"name":"KUIPER-00265","tle1":"1 67159C 25301AC  26122.13067130  .00006577  00000+0  86074-3 0  1223","tle2":"2 67159  51.9015 209.3113 0000537 106.0784 125.1137 14.79932254    18"},{"name":"KUIPER-00159","tle1":"1 67764C 26030A   26122.06885417  .00013155  00000+0  35417-3 0  1228","tle2":"2 67764  51.8852 321.4255 0005595 224.7266   1.6889 15.37224423    12"},{"name":"KUIPER-00160","tle1":"1 67765C 26030B   26122.07358796  .00012904  00000+0  34711-3 0  1222","tle2":"2 67765  51.8814 321.4307 0005454 234.9586 349.4690 15.37251905    19"},{"name":"KUIPER-00177","tle1":"1 67766C 26030C   26122.14452546  .00002830  00000+0  37044-3 0  1228","tle2":"2 67766  51.9009 336.7437 0000738 116.3295 111.9260 14.79929772    14"},{"name":"KUIPER-00178","tle1":"1 67767C 26030D   26122.06435185  .00004506  00000+0  64097-3 0  1220","tle2":"2 67767  51.9007 335.9506 0000826  79.7148 127.9332 14.76406744    11"},{"name":"KUIPER-00180","tle1":"1 67768C 26030E   26122.06504630  .00008726  00000+0  11404-2 0  1224","tle2":"2 67768  51.8988 332.0944 0000766  50.7385 265.6437 14.79987752    10"},{"name":"KUIPER-00197","tle1":"1 67769C 26030F   26122.03413194  .00013184  00000+0  34630-3 0  1227","tle2":"2 67769  51.8836 321.2212 0002373 210.2282   1.8923 15.37996817    13"},{"name":"KUIPER-00198","tle1":"1 67770C 26030G   26122.12196759  .00003551  00000+0  32668-3 0  1220","tle2":"2 67770  51.8968 324.6683 0001969 264.7101 323.4479 14.94268757    10"},{"name":"KUIPER-00199","tle1":"1 67771C 26030H   26122.01015046  .00013785  00000+0  38858-3 0  1225","tle2":"2 67771  51.8815 322.5061 0010834 248.2076 325.9877 15.35754232    11"},{"name":"KUIPER-00200","tle1":"1 67772C 26030J   26122.05805556  .00008714  00000+0  41477-3 0  1220","tle2":"2 67772  51.8854 323.4708 0001246 269.2496 296.7008 15.18601168    10"},{"name":"KUIPER-00203","tle1":"1 67773C 26030K   26122.06607639  .00009112  00000+0  11940-2 0  1228","tle2":"2 67773  51.9067 342.0929 0001015  67.4163 132.0603 14.79877361    12"},{"name":"KUIPER-00205","tle1":"1 67774C 26030L   26122.02960648  .00013392  00000+0  34957-3 0  1226","tle2":"2 67774  51.8811 321.1750 0004013 199.2763  12.3407 15.38182806    11"},{"name":"KUIPER-00208","tle1":"1 67775C 26030M   26122.21120370  .00000740  00000+0  10505-3 0  1224","tle2":"2 67775  51.8982 332.1523 0006442 248.4408 356.0111 14.76490992    11"},{"name":"KUIPER-00209","tle1":"1 67776C 26030N   26122.06539352  .00004418  00000+0  62865-3 0  1224","tle2":"2 67776  51.9008 331.8317 0000991 318.4995 357.4620 14.76393653    17"},{"name":"KUIPER-00213","tle1":"1 67777C 26030P   26122.18861111  .00000428  00000+0  56862-4 0  1227","tle2":"2 67777  51.8959 329.1409 0003436 293.9587 305.4743 14.79326642    11"},{"name":"KUIPER-00214","tle1":"1 67778C 26030Q   26122.07994213  .00004683  00000+0  63629-3 0  1221","tle2":"2 67778  51.9005 327.0582 0001331  21.6170 186.6094 14.78359451    11"},{"name":"KUIPER-00215","tle1":"1 67779C 26030R   26122.01327546  .00013238  00000+0  38459-3 0  1224","tle2":"2 67779  51.8843 322.5491 0010751 248.5991 328.1115 15.34813328    15"},{"name":"KUIPER-00218","tle1":"1 67780C 26030S   26122.07962963 -.00675090  00000+0 -86201-1 0  1228","tle2":"2 67780  51.8979 328.5994 0000471  73.3572 246.5833 14.81649379    12"},{"name":"KUIPER-00220","tle1":"1 67781C 26030T   26122.05565972  .00012506  00000+0  34776-3 0  1223","tle2":"2 67781  51.8824 322.0592 0008502 243.6211 334.8815 15.36202447    13"},{"name":"KUIPER-00222","tle1":"1 67782C 26030U   26122.11466435  .00003500  00000+0  27015-3 0  1227","tle2":"2 67782  51.8942 325.1910 0017771 254.9518 336.7089 15.00926206    17"},{"name":"KUIPER-00223","tle1":"1 67783C 26030V   26122.15844907  .00007144  00000+0  21671-3 0  1226","tle2":"2 67783  51.8832 321.9643 0011270 244.1821 356.2583 15.33452284    11"},{"name":"KUIPER-00225","tle1":"1 67784C 26030W   26122.10701389  .00004085  00000+0  25792-3 0  1227","tle2":"2 67784  51.8957 322.9823 0004033 270.5198 314.0139 15.08538586    11"},{"name":"KUIPER-00226","tle1":"1 67785C 26030X   26122.14244213 -.00127730  00000+0 -49478-2 0  1221","tle2":"2 67785  51.8835 324.7777 0018458 252.6491 336.8966 15.25559488    11"},{"name":"KUIPER-00259","tle1":"1 67786C 26030Y   26122.22347222  .00001106  00000+0  63678-4 0  1221","tle2":"2 67786  51.8937 322.3149 0008722 230.9157  35.1982 15.11846630    13"},{"name":"KUIPER-00260","tle1":"1 67787C 26030Z   26122.10773148  .00005192  00000+0  24514-3 0  1223","tle2":"2 67787  51.8867 321.5490 0001571 272.0299 317.5810 15.18885093    15"},{"name":"KUIPER-00262","tle1":"1 67788C 26030AA  26122.10636574  .00004503  00000+0  24288-3 0  1228","tle2":"2 67788  51.8895 321.6209 0001828 219.3062  20.7333 15.14221920    15"},{"name":"KUIPER-00266","tle1":"1 67789C 26030AB  26122.06674769  .00009560  00000+0  36854-3 0  1222","tle2":"2 67789  51.8851 325.0303 0021348 259.6259 324.5945 15.25525805    10"},{"name":"KUIPER-00268","tle1":"1 67790C 26030AC  26122.05774306  .00013197  00000+0  35490-3 0  1227","tle2":"2 67790  51.8853 321.3718 0003480 218.0995 358.9916 15.37267810    17"},{"name":"KUIPER-00270","tle1":"1 67791C 26030AD  26122.01569444  .00013684  00000+0  38221-3 0  1225","tle2":"2 67791  51.8820 322.3405 0010667 245.3003  67.6275 15.36041295    12"},{"name":"KUIPER-00274","tle1":"1 67792C 26030AE  26122.08341435  .00005478  00000+0  49951-3 0  1225","tle2":"2 67792  51.8957 326.6174 0019425 258.5648 324.8063 14.94468725    13"},{"name":"KUIPER-00275","tle1":"1 67793C 26030AF  26122.05693287  .00012392  00000+0  34615-3 0  1222","tle2":"2 67793  51.8855 322.0807 0009942 233.0095 352.1628 15.36046023    12"},{"name":"KUIPER-00276","tle1":"1 67794C 26030AG  26122.01083333  .00011134  00000+0  41881-3 0  1220","tle2":"2 67794  51.8836 325.4551 0018674 233.3665 332.3074 15.26390069    19"},{"name":"KUIPER-00279","tle1":"1 67795C 26030AH  26122.09901620 -.00045269  00000+0 -12756-2 0  1223","tle2":"2 67795  51.8801 321.5847 0006753 231.7028 353.2398 15.35860800    13"},{"name":"KUIPER-00131","tle1":"1 68573C 26072A   26122.14192130  .00005952  00000+0  37604-3 0  1221","tle2":"2 68573  51.8875  40.9293 0006273 201.3524 282.0900 15.08505798    17"},{"name":"KUIPER-00189","tle1":"1 68574C 26072B   26122.11537037  .00004059  00000+0  33673-3 0  1227","tle2":"2 68574  51.8947  42.5289 0000644 142.7370 171.4945 14.98294883    12"},{"name":"KUIPER-00192","tle1":"1 68575C 26072C   26122.08239583  .00006444  00000+0  25080-3 0  1222","tle2":"2 68575  51.8827  40.3068 0005168 214.1879  95.9714 15.25421850    16"},{"name":"KUIPER-00193","tle1":"1 68576C 26072D   26122.21956019  .00014951  00000+0  39241-3 0  1224","tle2":"2 68576  51.8769  39.1642 0003619 181.1750  24.6941 15.38014240    12"},{"name":"KUIPER-00194","tle1":"1 68577C 26072E   26122.21814815 -.00752810  00000+0 -23623-1 0  1222","tle2":"2 68577  51.8798  39.1732 0003419 170.3361  34.5343 15.33197753    13"},{"name":"KUIPER-00229","tle1":"1 68578C 26072F   26122.21976852 -.00128620  00000+0 -70559-2 0  1220","tle2":"2 68578  51.8815  40.4907 0007965 220.4784  92.2351 15.13725800    17"},{"name":"KUIPER-00230","tle1":"1 68579C 26072G   26122.09452546  .00011582  00000+0  31287-3 0  1228","tle2":"2 68579  51.8786  39.6128 0001432 174.5695 133.2714 15.37137069    12"}]}